OBJECT_NAME,OBJECT_ID,EPOCH,MEAN_MOTION,ECCENTRICITY,INCLINATION,RA_OF_ASC_NODE,ARG_OF_PERICENTER,MEAN_ANOMALY,EPHEMERIS_TYPE,CLASSIFICATION_TYPE,NORAD_CAT_ID,ELEMENT_SET_NO,REV_AT_EPOCH,BSTAR,MEAN_MOTION_DOT,MEAN_MOTION_DDOT
LEMUR-2-STARLIGHT,2025-276DY,2026-06-27T04:22:36.939072,14.99150450,.0014693,97.5246,248.4795,99.5869,260.7015,0,U,66783,999,3169,.58797E-3,.7114E-4,0
LEMUR-2-TARTIFLETTE,2025-276DZ,2026-06-27T04:20:13.549632,14.99160657,.0013666,97.5249,248.4855,106.6575,253.6150,0,U,66784,999,3169,.49314E-3,.5956E-4,0
LEMUR-2-VUKASIN,2025-276EA,2026-06-27T03:58:40.788768,15.00427471,.0005487,97.5292,248.7921,101.2816,258.9025,0,U,66785,999,3164,.14448E-3,.176E-4,0
LEMUR-2-HOTSPUR-TOM,2025-276EB,2026-06-27T04:10:30.462816,14.99060888,.0014714,97.5243,248.4580,98.5783,261.7108,0,U,66786,999,3162,.50414E-3,.6076E-4,0
LEMUR-2-MYRA,2025-276EC,2026-06-27T03:08:53.672064,15.00380419,.0017707,97.5221,248.6859,109.5102,250.8036,0,U,66787,999,3170,.61852E-3,.774E-4,0
LEMUR-2 FIKRETDENGIZ,2026-004A,2026-06-26T22:47:47.169600,14.88392743,.0010591,97.8013,176.3578,105.6843,254.5543,0,U,67363,999,2473,.5125E-3,.4701E-4,0
TWILIGHT-1 OBJECT B,2026-004B,2026-06-26T23:29:01.338144,14.87734551,.0010283,97.8063,176.3969,96.9844,263.2542,0,U,67364,999,2474,.20865E-3,.185E-4,0
LEMUR-2-MARIO-SOUSA,2026-004C,2026-06-26T23:59:10.624128,14.88587917,.0010144,97.7984,176.4023,106.5377,253.6955,0,U,67365,999,2475,.53325E-3,.4917E-4,0
LEMUR-2-SONNENBLUME,2026-004E,2026-06-26T22:22:02.660736,14.88363917,.0009637,97.7984,176.3166,108.0943,252.1324,0,U,67367,999,2474,.36194E-3,.33E-4,0
LEMUR-2-WOBLER,2026-004F,2026-06-26T23:47:30.283008,14.88579379,.0009961,97.8036,176.5072,99.1871,261.0473,0,U,67368,999,2475,.4356E-3,.4005E-4,0
LEMUR-2-GRAM-E-SUE,2026-004H,2026-06-26T23:34:34.024800,14.88511668,.0008723,97.7972,176.3820,109.1241,251.0921,0,U,67370,999,2475,.25515E-3,.2318E-4,0
LEMUR-2-KATIE,2026-004AA,2026-06-26T11:44:22.166880,14.90102051,.0004737,97.8033,176.3860,74.1849,285.9891,0,U,67387,999,2469,.38064E-3,.3625E-4,0
LEMUR-2-HCS-BAZUS,2026-004AB,2026-06-26T22:59:32.680032,14.90161977,.000422,97.8021,176.8292,71.9591,288.2087,0,U,67388,999,2476,.60786E-3,.5833E-4,0
